{"type": "FeatureCollection", "features": [{"type": "Feature", "properties": {"norad_id": 26766, "name": "INTELSAT 10 (IS-10)", "group": "intelsat", "lat": 8.367882162833673, "lon": 137.0883558640627, "alt_km": 36149.36859326131, "timestamp": "2025-12-05T16:54:14.336934+00:00", "meta": {"OBJECT_NAME": "INTELSAT 10 (IS-10)", "OBJECT_ID": "2001-019A", "EPOCH": "2025-12-04T12:50:24.704160", "MEAN_MOTION": 0.99078419, "ECCENTRICITY": 0.00078041, "INCLINATION": 8.6091, "RA_OF_ASC_NODE": 61.2371, "ARG_OF_PERICENTER": 219.0537, "MEAN_ANOMALY": 159.9231, "EPHEMERIS_TYPE": 0, "CLASSIFICATION_TYPE": "U", "NORAD_CAT_ID": 26766, "ELEMENT_SET_NO": 999, "REV_AT_EPOCH": 4365, "BSTAR": 0, "MEAN_MOTION_DOT": -1.87e-06, "MEAN_MOTION_DDOT": 0}, "tle": {"line1": "1 26766U 01019A   25338.53500815 -.00000187  00000+0  00000+0 0  9991", "line2": "2 26766   8.6091  61.2371 0007804 219.0537 159.9231  0.99078419 43654"}}, "geometry": {"type": "Point", "coordinates": [137.0883558640627, 8.367882162833673]}}, {"type": "Feature", "properties": {"norad_id": 26900, "name": "INTELSAT 902 (IS-902)", "group": "intelsat", "lat": -2.3135897105645484, "lon": -81.91477684125718, "alt_km": 35771.218125800966, "timestamp": "2025-12-05T16:54:14.336956+00:00", "meta": {"OBJECT_NAME": "INTELSAT 902 (IS-902)", "OBJECT_ID": "2001-039A", "EPOCH": "2025-12-01T16:59:59.311968", "MEAN_MOTION": 1.00270327, "ECCENTRICITY": 0.00043097, "INCLINATION": 5.6187, "RA_OF_ASC_NODE": 74.2002, "ARG_OF_PERICENTER": 175.119, "MEAN_ANOMALY": 26.3816, "EPHEMERIS_TYPE": 0, "CLASSIFICATION_TYPE": "U", "NORAD_CAT_ID": 26900, "ELEMENT_SET_NO": 999, "REV_AT_EPOCH": 8871, "BSTAR": 0, "MEAN_MOTION_DOT": -2.63e-06, "MEAN_MOTION_DDOT": 0}, "tle": {"line1": "1 26900U 01039A   25335.70832537 -.00000263  00000+0  00000+0 0  9993", "line2": "2 26900   5.6187  74.2002 0004309 175.1190  26.3816  1.00270327 88713"}}, "geometry": {"type": "Point", "coordinates": [-81.91477684125718, -2.3135897105645484]}}, {"type": "Feature", "properties": {"norad_id": 27380, "name": "INTELSAT 904 (IS-904)", "group": "intelsat", "lat": -4.58893201814157, "lon": -63.37761833921622, "alt_km": 35780.70354675988, "timestamp": "2025-12-05T16:54:14.336970+00:00", "meta": {"OBJECT_NAME": "INTELSAT 904 (IS-904)", "OBJECT_ID": "2002-007A", "EPOCH": "2025-12-04T23:50:59.656992", "MEAN_MOTION": 1.00268913, "ECCENTRICITY": 0.00017027, "INCLINATION": 6.4346, "RA_OF_ASC_NODE": 71.5199, "ARG_OF_PERICENTER": 207.4676, "MEAN_ANOMALY": 121.3102, "EPHEMERIS_TYPE": 0, "CLASSIFICATION_TYPE": "U", "NORAD_CAT_ID": 27380, "ELEMENT_SET_NO": 999, "REV_AT_EPOCH": 4981, "BSTAR": 0, "MEAN_MOTION_DOT": -2.17e-06, "MEAN_MOTION_DDOT": 0}, "tle": {"line1": "1 27380U 02007A   25338.99374603 -.00000217  00000+0  00000+0 0  9990", "line2": "2 27380   6.4346  71.5199 0001702 207.4676 121.3102  1.00268913 49811"}}, "geometry": {"type": "Point", "coordinates": [-63.37761833921622, -4.58893201814157]}}, {"type": "Feature", "properties": {"norad_id": 27426, "name": "DIRECTV 5 (TEMPO 1)", "group": "intelsat", "lat": 2.7683764796311507, "lon": -141.76754430154537, "alt_km": 35775.76637869074, "timestamp": "2025-12-05T16:54:14.336982+00:00", "meta": {"OBJECT_NAME": "DIRECTV 5 (TEMPO 1)", "OBJECT_ID": "2002-023A", "EPOCH": "2025-12-05T04:34:38.633952", "MEAN_MOTION": 1.00271336, "ECCENTRICITY": 0.00038772, "INCLINATION": 4.3818, "RA_OF_ASC_NODE": 77.7404, "ARG_OF_PERICENTER": 192.7175, "MEAN_ANOMALY": 122.3307, "EPHEMERIS_TYPE": 0, "CLASSIFICATION_TYPE": "U", "NORAD_CAT_ID": 27426, "ELEMENT_SET_NO": 999, "REV_AT_EPOCH": 8617, "BSTAR": 0, "MEAN_MOTION_DOT": -4.7e-07, "MEAN_MOTION_DDOT": 0}, "tle": {"line1": "1 27426U 02023A   25339.19072493 -.00000047  00000+0  00000+0 0  9995", "line2": "2 27426   4.3818  77.7404 0003877 192.7175 122.3307  1.00271336 86176"}}, "geometry": {"type": "Point", "coordinates": [-141.76754430154537, 2.7683764796311507]}}, {"type": "Feature", "properties": {"norad_id": 27438, "name": "INTELSAT 905 (IS-905)", "group": "intelsat", "lat": 5.467220448219754, "lon": -168.743050105335, "alt_km": 35780.21358660819, "timestamp": "2025-12-05T16:54:14.336993+00:00", "meta": {"OBJECT_NAME": "INTELSAT 905 (IS-905)", "OBJECT_ID": "2002-027A", "EPOCH": "2025-12-03T09:40:44.149728", "MEAN_MOTION": 1.00273288, "ECCENTRICITY": 0.00031296, "INCLINATION": 6.2606, "RA_OF_ASC_NODE": 72.1621, "ARG_OF_PERICENTER": 189.1417, "MEAN_ANOMALY": 179.1858, "EPHEMERIS_TYPE": 0, "CLASSIFICATION_TYPE": "U", "NORAD_CAT_ID": 27438, "ELEMENT_SET_NO": 999, "REV_AT_EPOCH": 4940, "BSTAR": 0, "MEAN_MOTION_DOT": 1.09e-06, "MEAN_MOTION_DDOT": 0}, "tle": {"line1": "1 27438U 02027A   25337.40328877  .00000109  00000+0  00000+0 0  9992", "line2": "2 27438   6.2606  72.1621 0003129 189.1417 179.1858  1.00273288 49408"}}, "geometry": {"type": "Point", "coordinates": [-168.743050105335, 5.467220448219754]}}, {"type": "Feature", "properties": {"norad_id": 27445, "name": "GALAXY 3C (G-3C)", "group": "intelsat", "lat": 1.452573044724073, "lon": -126.50605401020779, "alt_km": 35782.86162145658, "timestamp": "2025-12-05T16:54:14.337005+00:00", "meta": {"OBJECT_NAME": "GALAXY 3C (G-3C)", "OBJECT_ID": "2002-030A", "EPOCH": "2025-12-05T04:26:38.705280", "MEAN_MOTION": 1.0027055, "ECCENTRICITY": 0.00012781, "INCLINATION": 3.2443, "RA_OF_ASC_NODE": 80.5831, "ARG_OF_PERICENTER": 102.0038, "MEAN_ANOMALY": 223.4603, "EPHEMERIS_TYPE": 0, "CLASSIFICATION_TYPE": "U", "NORAD_CAT_ID": 27445, "ELEMENT_SET_NO": 999, "REV_AT_EPOCH": 4454, "BSTAR": 0, "MEAN_MOTION_DOT": -1.42e-06, "MEAN_MOTION_DDOT": 0}, "tle": {"line1": "1 27445U 02030A   25339.18517020 -.00000142  00000+0  00000+0 0  9999", "line2": "2 27445   3.2443  80.5831 0001278 102.0038 223.4603  1.00270550 44544"}}, "geometry": {"type": "Point", "coordinates": [-126.50605401020779, 1.452573044724073]}}, {"type": "Feature", "properties": {"norad_id": 27513, "name": "INTELSAT 906 (IS-906)", "group": "intelsat", "lat": -3.5859629899555427, "lon": 32.62490863091984, "alt_km": 35803.42394828151, "timestamp": "2025-12-05T16:54:14.337016+00:00", "meta": {"OBJECT_NAME": "INTELSAT 906 (IS-906)", "OBJECT_ID": "2002-041A", "EPOCH": "2025-12-05T05:26:28.773024", "MEAN_MOTION": 1.00270153, "ECCENTRICITY": 0.00060107, "INCLINATION": 5.3098, "RA_OF_ASC_NODE": 75.3213, "ARG_OF_PERICENTER": 187.0513, "MEAN_ANOMALY": 317.6773, "EPHEMERIS_TYPE": 0, "CLASSIFICATION_TYPE": "U", "NORAD_CAT_ID": 27513, "ELEMENT_SET_NO": 999, "REV_AT_EPOCH": 8508, "BSTAR": 0, "MEAN_MOTION_DOT": 2.2e-07, "MEAN_MOTION_DDOT": 0}, "tle": {"line1": "1 27513U 02041A   25339.22672191  .00000022  00000+0  00000+0 0  9999", "line2": "2 27513   5.3098  75.3213 0006010 187.0513 317.6773  1.00270153 85082"}}, "geometry": {"type": "Point", "coordinates": [32.62490863091984, -3.5859629899555427]}}, {"type": "Feature", "properties": {"norad_id": 27954, "name": "GALAXY 13 (HORIZONS-1)", "group": "intelsat", "lat": 0.9046354063625975, "lon": 178.29087483939728, "alt_km": 35782.84323743899, "timestamp": "2025-12-05T16:54:14.337027+00:00", "meta": {"OBJECT_NAME": "GALAXY 13 (HORIZONS-1)", "OBJECT_ID": "2003-044A", "EPOCH": "2025-12-05T06:08:09.778272", "MEAN_MOTION": 1.00273342, "ECCENTRICITY": 0.0002063, "INCLINATION": 0.9162, "RA_OF_ASC_NODE": 86.5663, "ARG_OF_PERICENTER": 164.1755, "MEAN_ANOMALY": 125.6214, "EPHEMERIS_TYPE": 0, "CLASSIFICATION_TYPE": "U", "NORAD_CAT_ID": 27954, "ELEMENT_SET_NO": 999, "REV_AT_EPOCH": 4462, "BSTAR": 0, "MEAN_MOTION_DOT": 1.44e-06, "MEAN_MOTION_DDOT": 0}, "tle": {"line1": "1 27954U 03044A   25339.25566873  .00000144  00000+0  00000+0 0  9999", "line2": "2 27954   0.9162  86.5663 0002063 164.1755 125.6214  1.00273342 44620"}}, "geometry": {"type": "Point", "coordinates": [178.29087483939728, 0.9046354063625975]}}, {"type": "Feature", "properties": {"norad_id": 28358, "name": "INTELSAT 10-02", "group": "intelsat", "lat": -0.030014380541018182, "lon": -32.68384320519627, "alt_km": 35783.100670490065, "timestamp": "2025-12-05T16:54:14.337038+00:00", "meta": {"OBJECT_NAME": "INTELSAT 10-02", "OBJECT_ID": "2004-022A", "EPOCH": "2025-12-04T23:59:43.819872", "MEAN_MOTION": 1.00270714, "ECCENTRICITY": 0.00011376, "INCLINATION": 0.0405, "RA_OF_ASC_NODE": 80.5875, "ARG_OF_PERICENTER": 199.5905, "MEAN_ANOMALY": 152.825, "EPHEMERIS_TYPE": 0, "CLASSIFICATION_TYPE": "U", "NORAD_CAT_ID": 28358, "ELEMENT_SET_NO": 999, "REV_AT_EPOCH": 7860, "BSTAR": 0, "MEAN_MOTION_DOT": 2e-08, "MEAN_MOTION_DDOT": 0}, "tle": {"line1": "1 28358U 04022A   25338.99981273  .00000002  00000+0  00000+0 0  9993", "line2": "2 28358   0.0405  80.5875 0001137 199.5905 152.8250  1.00270714 78606"}}, "geometry": {"type": "Point", "coordinates": [-32.68384320519627, -0.030014380541018182]}}, {"type": "Feature", "properties": {"norad_id": 28626, "name": "XM-3 (RHYTHM)", "group": "intelsat", "lat": 0.10416089708818776, "lon": 116.00754863504233, "alt_km": 36162.57068278332, "timestamp": "2025-12-05T16:54:14.337049+00:00", "meta": {"OBJECT_NAME": "XM-3 (RHYTHM)", "OBJECT_ID": "2005-008A", "EPOCH": "2025-12-05T06:22:38.609760", "MEAN_MOTION": 0.98954793, "ECCENTRICITY": 0.00010619, "INCLINATION": 0.1543, "RA_OF_ASC_NODE": 80.9692, "ARG_OF_PERICENTER": 260.0086, "MEAN_ANOMALY": 338.7855, "EPHEMERIS_TYPE": 0, "CLASSIFICATION_TYPE": "U", "NORAD_CAT_ID": 28626, "ELEMENT_SET_NO": 999, "REV_AT_EPOCH": 4067, "BSTAR": 0, "MEAN_MOTION_DOT": -2.63e-06, "MEAN_MOTION_DDOT": 0}, "tle": {"line1": "1 28626U 05008A   25339.26572465 -.00000263  00000+0  00000+0 0  9996", "line2": "2 28626   0.1543  80.9692 0001061 260.0086 338.7855  0.98954793 40673"}}, "geometry": {"type": "Point", "coordinates": [116.00754863504233, 0.10416089708818776]}}]}